{"type": "FeatureCollection", "features": [ {"type": "Feature", "properties": {"norad_id": 41836, "name": "HIMAWARI-9", "group": "weather", "lat": -0.015091074222657947, "lon": -66.78084102972544, "alt_km": 35782.29266688037, "timestamp": "2025-12-26T03:50:11.730022+00:00", "meta": {"OBJECT_NAME": "HIMAWARI-9", "OBJECT_ID": "2016-064A", "EPOCH": "2025-12-25T12:54:35.530272", "MEAN_MOTION": 1.00269178, "ECCENTRICITY": 0.0001265, "INCLINATION": 0.01, "RA_OF_ASC_NODE": 87.1528, "ARG_OF_PERICENTER": 236.8608, "MEAN_ANOMALY": 104.712, "EPHEMERIS_TYPE": 0, "CLASSIFICATION_TYPE": "U", "NORAD_CAT_ID": 41836, "ELEMENT_SET_NO": 999, "REV_AT_EPOCH": 3346, "BSTAR": 0, "MEAN_MOTION_DOT": -2.54e-06, "MEAN_MOTION_DDOT": 0}, "tle": {"line1": "1 41836U 16064A   25359.53791123 -.00000254  00000+0  00000+0 0  9994", "line2": "2 41836   0.0100  87.1528 0001265 236.8608 104.7120  1.00269178 33468"}}, "geometry": {"type": "Point", "coordinates": [-66.78084102972544, -0.015091074222657947]}}, {"type": "Feature", "properties": {"norad_id": 41866, "name": "GOES 16", "group": "weather", "lat": -0.04990742425343159, "lon": 47.81410381519319, "alt_km": 35796.31106522402, "timestamp": "2025-12-26T03:50:11.730035+00:00", "meta": {"OBJECT_NAME": "GOES 16", "OBJECT_ID": "2016-071A", "EPOCH": "2025-12-25T12:34:07.531392", "MEAN_MOTION": 1.00271753, "ECCENTRICITY": 0.0003194, "INCLINATION": 0.0771, "RA_OF_ASC_NODE": 101.2901, "ARG_OF_PERICENTER": 167.4094, "MEAN_ANOMALY": 269.4528, "EPHEMERIS_TYPE": 0, "CLASSIFICATION_TYPE": "U", "NORAD_CAT_ID": 41866, "ELEMENT_SET_NO": 999, "REV_AT_EPOCH": 3336, "BSTAR": 0, "MEAN_MOTION_DOT": -7e-07, "MEAN_MOTION_DDOT": 0}, "tle": {"line1": "1 41866U 16071A   25359.52369828 -.00000070  00000+0  00000+0 0  9993", "line2": "2 41866   0.0771 101.2901 0003194 167.4094 269.4528  1.00271753 33361"}}, "geometry": {"type": "Point", "coordinates": [47.81410381519319, -0.04990742425343159]}}, {"type": "Feature", "properties": {"norad_id": 41882, "name": "FENGYUN 4A", "group": "weather", "lat": -0.46803647183512326, "lon": -83.93629539814783, "alt_km": 35776.59234770189, "timestamp": "2025-12-26T03:50:11.730046+00:00", "meta": {"OBJECT_NAME": "FENGYUN 4A", "OBJECT_ID": "2016-077A", "EPOCH": "2025-12-25T15:06:51.623424", "MEAN_MOTION": 1.00262863, "ECCENTRICITY": 0.0004516, "INCLINATION": 1.8797, "RA_OF_ASC_NODE": 82.2647, "ARG_OF_PERICENTER": 143.1676, "MEAN_ANOMALY": 219.2646, "EPHEMERIS_TYPE": 0, "CLASSIFICATION_TYPE": "U", "NORAD_CAT_ID": 41882, "ELEMENT_SET_NO": 999, "REV_AT_EPOCH": 3319, "BSTAR": 0, "MEAN_MOTION_DOT": -3.36e-06, "MEAN_MOTION_DDOT": 0}, "tle": {"line1": "1 41882U 16077A   25359.62976416 -.00000336  00000+0  00000+0 0  9990", "line2": "2 41882   1.8797  82.2647 0004516 143.1676 219.2646  1.00262863 33194"}}, "geometry": {"type": "Point", "coordinates": [-83.93629539814783, -0.46803647183512326]}}, {"type": "Feature", "properties": {"norad_id": 41884, "name": "CYGFM05", "group": "weather", "lat": 16.825961065718552, "lon": -14.91501086368105, "alt_km": 418.72905456192257, "timestamp": "2025-12-26T03:50:11.730058+00:00", "meta": {"OBJECT_NAME": "CYGFM05", "OBJECT_ID": "2016-078A", "EPOCH": "2025-12-25T06:02:20.349024", "MEAN_MOTION": 15.48102711, "ECCENTRICITY": 0.0010557, "INCLINATION": 34.9604, "RA_OF_ASC_NODE": 325.3743, "ARG_OF_PERICENTER": 290.9758, "MEAN_ANOMALY": 68.9834, "EPHEMERIS_TYPE": 0, "CLASSIFICATION_TYPE": "U", "NORAD_CAT_ID": 41884, "ELEMENT_SET_NO": 999, "REV_AT_EPOCH": 50170, "BSTAR": 0.00038157, "MEAN_MOTION_DOT": 0.00020682, "MEAN_MOTION_DDOT": 0}, "tle": {"line1": "1 41884U 16078A   25359.25162441  .00020682  00000+0  38157-3 0  9990", "line2": "2 41884  34.9604 325.3743 0010557 290.9758  68.9834 15.48102711501709"}}, "geometry": {"type": "Point", "coordinates": [-14.91501086368105, 16.825961065718552]}}, {"type": "Feature", "properties": {"norad_id": 41885, "name": "CYGFM04", "group": "weather", "lat": 23.234131781256643, "lon": -28.22379714404019, "alt_km": 408.2780599821863, "timestamp": "2025-12-26T03:50:11.730069+00:00", "meta": {"OBJECT_NAME": "CYGFM04", "OBJECT_ID": "2016-078B", "EPOCH": "2025-12-25T04:28:37.063776", "MEAN_MOTION": 15.50892129, "ECCENTRICITY": 0.0009134, "INCLINATION": 34.935, "RA_OF_ASC_NODE": 300.2129, "ARG_OF_PERICENTER": 315.0018, "MEAN_ANOMALY": 44.9963, "EPHEMERIS_TYPE": 0, "CLASSIFICATION_TYPE": "U", "NORAD_CAT_ID": 41885, "ELEMENT_SET_NO": 999, "REV_AT_EPOCH": 50187, "BSTAR": 0.00040093, "MEAN_MOTION_DOT": 0.0002399, "MEAN_MOTION_DDOT": 0}, "tle": {"line1": "1 41885U 16078B   25359.18654009  .00023990  00000+0  40093-3 0  9996", "line2": "2 41885  34.9350 300.2129 0009134 315.0018  44.9963 15.50892129501872"}}, "geometry": {"type": "Point", "coordinates": [-28.22379714404019, 23.234131781256643]}}, {"type": "Feature", "properties": {"norad_id": 41886, "name": "CYGFM02", "group": "weather", "lat": 28.15874048044502, "lon": 61.92321183881084, "alt_km": 411.27430934320546, "timestamp": "2025-12-26T03:50:11.730079+00:00", "meta": {"OBJECT_NAME": "CYGFM02", "OBJECT_ID": "2016-078C", "EPOCH": "2025-12-25T05:41:42.014112", "MEAN_MOTION": 15.52312249, "ECCENTRICITY": 0.0010765, "INCLINATION": 34.9439, "RA_OF_ASC_NODE": 298.0418, "ARG_OF_PERICENTER": 316.9249, "MEAN_ANOMALY": 43.0631, "EPHEMERIS_TYPE": 0, "CLASSIFICATION_TYPE": "U", "NORAD_CAT_ID": 41886, "ELEMENT_SET_NO": 999, "REV_AT_EPOCH": 50201, "BSTAR": 0.00040919, "MEAN_MOTION_DOT": 0.00025793, "MEAN_MOTION_DDOT": 0}, "tle": {"line1": "1 41886U 16078C   25359.23729183  .00025793  00000+0  40919-3 0  9999", "line2": "2 41886  34.9439 298.0418 0010765 316.9249  43.0631 15.52312249502015"}}, "geometry": {"type": "Point", "coordinates": [61.92321183881084, 28.15874048044502]}}, {"type": "Feature", "properties": {"norad_id": 41887, "name": "CYGFM01", "group": "weather", "lat": 33.894199862203976, "lon": 67.5013931698295, "alt_km": 421.0907718739609, "timestamp": "2025-12-26T03:50:11.730090+00:00", "meta": {"OBJECT_NAME": "CYGFM01", "OBJECT_ID": "2016-078D", "EPOCH": "2025-12-25T15:01:01.985952", "MEAN_MOTION": 15.48713237, "ECCENTRICITY": 0.0010343, "INCLINATION": 34.9436, "RA_OF_ASC_NODE": 325.1858, "ARG_OF_PERICENTER": 285.9257, "MEAN_ANOMALY": 74.0325, "EPHEMERIS_TYPE": 0, "CLASSIFICATION_TYPE": "U", "NORAD_CAT_ID": 41887, "ELEMENT_SET_NO": 999, "REV_AT_EPOCH": 50170, "BSTAR": 0.00040662, "MEAN_MOTION_DOT": 0.00022526, "MEAN_MOTION_DDOT": 0}, "tle": {"line1": "1 41887U 16078D   25359.62571743  .00022526  00000+0  40662-3 0  9996", "line2": "2 41887  34.9436 325.1858 0010343 285.9257  74.0325 15.48713237501705"}}, "geometry": {"type": "Point", "coordinates": [67.5013931698295, 33.894199862203976]}}, {"type": "Feature", "properties": {"norad_id": 41888, "name": "CYGFM08", "group": "weather", "lat": -16.985954621797102, "lon": 150.46443494823814, "alt_km": 419.5519697903874, "timestamp": "2025-12-26T03:50:11.730101+00:00", "meta": {"OBJECT_NAME": "CYGFM08", "OBJECT_ID": "2016-078E", "EPOCH": "2025-12-25T06:50:09.300768", "MEAN_MOTION": 15.49937815, "ECCENTRICITY": 0.001146, "INCLINATION": 34.9463, "RA_OF_ASC_NODE": 310.2611, "ARG_OF_PERICENTER": 307.0828, "MEAN_ANOMALY": 52.8846, "EPHEMERIS_TYPE": 0, "CLASSIFICATION_TYPE": "U", "NORAD_CAT_ID": 41888, "ELEMENT_SET_NO": 999, "REV_AT_EPOCH": 50188, "BSTAR": 0.0003946, "MEAN_MOTION_DOT": 0.00022839, "MEAN_MOTION_DDOT": 0}, "tle": {"line1": "1 41888U 16078E   25359.28482987  .00022839  00000+0  39460-3 0  9991", "line2": "2 41888  34.9463 310.2611 0011460 307.0828  52.8846 15.49937815501881"}}, "geometry": {"type": "Point", "coordinates": [150.46443494823814, -16.985954621797102]}}, {"type": "Feature", "properties": {"norad_id": 41890, "name": "CYGFM07", "group": "weather", "lat": -24.73743289397868, "lon": 154.71002066880718, "alt_km": 417.9347919304664, "timestamp": "2025-12-26T03:50:11.730113+00:00", "meta": {"OBJECT_NAME": "CYGFM07", "OBJECT_ID": "2016-078G", "EPOCH": "2025-12-25T02:08:18.875904", "MEAN_MOTION": 15.50522977, "ECCENTRICITY": 0.00093938, "INCLINATION": 34.9478, "RA_OF_ASC_NODE": 300.4548, "ARG_OF_PERICENTER": 319.9198, "MEAN_ANOMALY": 40.083, "EPHEMERIS_TYPE": 0, "CLASSIFICATION_TYPE": "U", "NORAD_CAT_ID": 41890, "ELEMENT_SET_NO": 999, "REV_AT_EPOCH": 50187, "BSTAR": 0.00040403981, "MEAN_MOTION_DOT": 0.00023861, "MEAN_MOTION_DDOT": 0}, "tle": {"line1": "1 41890U 16078G   25359.08910736  .00023861  00000+0  40404-3 0  9996", "line2": "2 41890  34.9478 300.4548 0009393 319.9198  40.0830 15.50522977501876"}}, "geometry": {"type": "Point", "coordinates": [154.71002066880718, -24.73743289397868]}}, {"type": "Feature", "properties": {"norad_id": 41891, "name": "CYGFM03", "group": "weather", "lat": 28.620239776508797, "lon": -13.244210836298217, "alt_km": 410.97743974004607, "timestamp": "2025-12-26T03:50:11.730124+00:00", "meta": {"OBJECT_NAME": "CYGFM03", "OBJECT_ID": "2016-078H", "EPOCH": "2025-12-25T01:19:20.476704", "MEAN_MOTION": 15.504147, "ECCENTRICITY": 0.00092269, "INCLINATION": 34.9431, "RA_OF_ASC_NODE": 302.6047, "ARG_OF_PERICENTER": 306.7099, "MEAN_ANOMALY": 53.2776, "EPHEMERIS_TYPE": 0, "CLASSIFICATION_TYPE": "U", "NORAD_CAT_ID": 41891, "ELEMENT_SET_NO": 999, "REV_AT_EPOCH": 50184, "BSTAR": 0.00039735587, "MEAN_MOTION_DOT": 0.00023373, "MEAN_MOTION_DDOT": 0}, "tle": {"line1": "1 41891U 16078H   25359.05509811  .00023373  00000+0  39736-3 0  9996", "line2": "2 41891  34.9431 302.6047 0009226 306.7099  53.2776 15.50414700501849"}}, "geometry": {"type": "Point", "coordinates": [-13.244210836298217, 28.620239776508797]}}]}